STARLINK-35325          
1 66080U 25235Y   25318.83334491 -.02067752  00000+0 -46449-1 0  9999
2 66080  53.1594  60.4817 0001061  93.8923 211.5794 15.46303340  5392
STARLINK-35403          
1 66081U 25235Z   25318.71210773  .00118468  00000+0  21026-2 0  9995
2 66081  53.1596  61.0399 0000449 103.2495 256.8565 15.49353880  5290
STARLINK-35011          
1 66082U 25235AA  25318.71243747  .00103135  00000+0  18356-2 0  9990
2 66082  53.1600  61.0400 0000514 147.9237 212.1804 15.49346256  5292
STARLINK-35291          
1 66083U 25235AB  25318.45373398  .00139471  00000+0  24724-2 0  9996
2 66083  53.1594  62.2696 0001121 101.8950 258.2185 15.49295923  5221
STARLINK-35379          
1 66084U 25235AC  25318.64690803  .00041993  00000+0  75823-3 0  9999
2 66084  53.1597  61.3414 0001060  89.4850 270.6281 15.49339264  5283
STARLINK-35370          
1 66085U 25235AD  25318.64656234  .00063509  00000+0  11386-2 0  9990
2 66085  53.1596  61.3392 0001141 116.5200 243.5926 15.49361265  5257
STARLINK-35596          
1 66086U 25236A   25318.83334491 -.00026819  00000+0 -47584-3 0  9996
2 66086  53.1597 279.2345 0001705  94.1713 256.9254 15.49304940  5397
STARLINK-35563          
1 66087U 25236B   25318.83334491 -.00027423  00000+0 -48675-3 0  9991
2 66087  53.1597 279.2304 0001617  94.8240 258.1874 15.49306305  5330
STARLINK-35461          
1 66088U 25236C   25318.83334491 -.00067747  00000+0 -12190-2 0  9997
2 66088  53.1595 279.2236 0001363  82.0914 274.7240 15.49344626  5337
STARLINK-35571          
1 66089U 25236D   25318.83334491 -.00019696  00000+0 -34696-3 0  9994
2 66089  53.1597 279.2268 0001686 101.7758 253.1473 15.49306358  5393
STARLINK-35570          
1 66090U 25236E   25318.83334491 -.00041133  00000+0 -73478-3 0  9998
2 66090  53.1595 279.2200 0001447  85.3064 273.4196 15.49331874  5399
STARLINK-35532          
1 66091U 25236F   25318.83334491 -.00042206  00000+0 -75423-3 0  9993
2 66091  53.1595 279.2159 0001371  80.7605 279.8809 15.49333115  5390
