CCSDS_OMM_VERS = 2.0
CREATION_DATE  = 
ORIGINATOR     = 

OBJECT_NAME    = STARLINK-35325
OBJECT_ID      = 2025-235Y
CENTER_NAME    = EARTH
REF_FRAME      = TEME
TIME_SYSTEM    = UTC
MEAN_ELEMENT_THEORY = SGP/SGP4

EPOCH          = 2025-11-14T20:00:01.000224
MEAN_MOTION    = 15.46303340
ECCENTRICITY   = .0001061
INCLINATION    = 53.1594
RA_OF_ASC_NODE = 60.4817
ARG_OF_PERICENTER = 93.8923
MEAN_ANOMALY   = 211.5794

EPHEMERIS_TYPE = 0
CLASSIFICATION_TYPE = U
NORAD_CAT_ID   = 66080
ELEMENT_SET_NO = 999
REV_AT_EPOCH   = 539
BSTAR          = -.46449E-1
MEAN_MOTION_DOT = -.2067752E-1
MEAN_MOTION_DDOT = 0

CCSDS_OMM_VERS = 2.0
CREATION_DATE  = 
ORIGINATOR     = 

OBJECT_NAME    = STARLINK-35403
OBJECT_ID      = 2025-235Z
CENTER_NAME    = EARTH
REF_FRAME      = TEME
TIME_SYSTEM    = UTC
MEAN_ELEMENT_THEORY = SGP/SGP4

EPOCH          = 2025-11-14T17:05:26.107872
MEAN_MOTION    = 15.49353880
ECCENTRICITY   = .0000449
INCLINATION    = 53.1596
RA_OF_ASC_NODE = 61.0399
ARG_OF_PERICENTER = 103.2495
MEAN_ANOMALY   = 256.8565

EPHEMERIS_TYPE = 0
CLASSIFICATION_TYPE = U
NORAD_CAT_ID   = 66081
ELEMENT_SET_NO = 999
REV_AT_EPOCH   = 529
BSTAR          = .21026E-2
MEAN_MOTION_DOT = .118468E-2
MEAN_MOTION_DDOT = 0

CCSDS_OMM_VERS = 2.0
CREATION_DATE  = 
ORIGINATOR     = 

OBJECT_NAME    = STARLINK-35011
OBJECT_ID      = 2025-235AA
CENTER_NAME    = EARTH
REF_FRAME      = TEME
TIME_SYSTEM    = UTC
MEAN_ELEMENT_THEORY = SGP/SGP4

EPOCH          = 2025-11-14T17:05:54.597408
MEAN_MOTION    = 15.49346256
ECCENTRICITY   = .0000514
INCLINATION    = 53.1600
RA_OF_ASC_NODE = 61.0400
ARG_OF_PERICENTER = 147.9237
MEAN_ANOMALY   = 212.1804

EPHEMERIS_TYPE = 0
CLASSIFICATION_TYPE = U
NORAD_CAT_ID   = 66082
ELEMENT_SET_NO = 999
REV_AT_EPOCH   = 529
BSTAR          = .18356E-2
MEAN_MOTION_DOT = .103135E-2
MEAN_MOTION_DDOT = 0

CCSDS_OMM_VERS = 2.0
CREATION_DATE  = 
ORIGINATOR     = 

OBJECT_NAME    = STARLINK-35291
OBJECT_ID      = 2025-235AB
CENTER_NAME    = EARTH
REF_FRAME      = TEME
TIME_SYSTEM    = UTC
MEAN_ELEMENT_THEORY = SGP/SGP4

EPOCH          = 2025-11-14T10:53:22.615872
MEAN_MOTION    = 15.49295923
ECCENTRICITY   = .0001121
INCLINATION    = 53.1594
RA_OF_ASC_NODE = 62.2696
ARG_OF_PERICENTER = 101.8950
MEAN_ANOMALY   = 258.2185

EPHEMERIS_TYPE = 0
CLASSIFICATION_TYPE = U
NORAD_CAT_ID   = 66083
ELEMENT_SET_NO = 999
REV_AT_EPOCH   = 522
BSTAR          = .24724E-2
MEAN_MOTION_DOT = .139471E-2
MEAN_MOTION_DDOT = 0

CCSDS_OMM_VERS = 2.0
CREATION_DATE  = 
ORIGINATOR     = 

OBJECT_NAME    = STARLINK-35379
OBJECT_ID      = 2025-235AC
CENTER_NAME    = EARTH
REF_FRAME      = TEME
TIME_SYSTEM    = UTC
MEAN_ELEMENT_THEORY = SGP/SGP4

EPOCH          = 2025-11-14T15:31:32.853792
MEAN_MOTION    = 15.49339264
ECCENTRICITY   = .000106
INCLINATION    = 53.1597
RA_OF_ASC_NODE = 61.3414
ARG_OF_PERICENTER = 89.4850
MEAN_ANOMALY   = 270.6281

EPHEMERIS_TYPE = 0
CLASSIFICATION_TYPE = U
NORAD_CAT_ID   = 66084
ELEMENT_SET_NO = 999
REV_AT_EPOCH   = 528
BSTAR          = .75823E-3
MEAN_MOTION_DOT = .41993E-3
MEAN_MOTION_DDOT = 0

CCSDS_OMM_VERS = 2.0
CREATION_DATE  = 
ORIGINATOR     = 

OBJECT_NAME    = STARLINK-35370
OBJECT_ID      = 2025-235AD
CENTER_NAME    = EARTH
REF_FRAME      = TEME
TIME_SYSTEM    = UTC
MEAN_ELEMENT_THEORY = SGP/SGP4

EPOCH          = 2025-11-14T15:31:02.986176
MEAN_MOTION    = 15.49361265
ECCENTRICITY   = .0001141
INCLINATION    = 53.1596
RA_OF_ASC_NODE = 61.3392
ARG_OF_PERICENTER = 116.5200
MEAN_ANOMALY   = 243.5926

EPHEMERIS_TYPE = 0
CLASSIFICATION_TYPE = U
NORAD_CAT_ID   = 66085
ELEMENT_SET_NO = 999
REV_AT_EPOCH   = 525
BSTAR          = .11386E-2
MEAN_MOTION_DOT = .63509E-3
MEAN_MOTION_DDOT = 0

CCSDS_OMM_VERS = 2.0
CREATION_DATE  = 
ORIGINATOR     = 

OBJECT_NAME    = STARLINK-35596
OBJECT_ID      = 2025-236A
CENTER_NAME    = EARTH
REF_FRAME      = TEME
TIME_SYSTEM    = UTC
MEAN_ELEMENT_THEORY = SGP/SGP4

EPOCH          = 2025-11-14T20:00:01.000224
MEAN_MOTION    = 15.49304940
ECCENTRICITY   = .0001705
INCLINATION    = 53.1597
RA_OF_ASC_NODE = 279.2345
ARG_OF_PERICENTER = 94.1713
MEAN_ANOMALY   = 256.9254

EPHEMERIS_TYPE = 0
CLASSIFICATION_TYPE = U
NORAD_CAT_ID   = 66086
ELEMENT_SET_NO = 999
REV_AT_EPOCH   = 539
BSTAR          = -.47584E-3
MEAN_MOTION_DOT = -.26819E-3
MEAN_MOTION_DDOT = 0

CCSDS_OMM_VERS = 2.0
CREATION_DATE  = 
ORIGINATOR     = 

OBJECT_NAME    = STARLINK-35563
OBJECT_ID      = 2025-236B
CENTER_NAME    = EARTH
REF_FRAME      = TEME
TIME_SYSTEM    = UTC
MEAN_ELEMENT_THEORY = SGP/SGP4

EPOCH          = 2025-11-14T20:00:01.000224
MEAN_MOTION    = 15.49306305
ECCENTRICITY   = .0001617
INCLINATION    = 53.1597
RA_OF_ASC_NODE = 279.2304
ARG_OF_PERICENTER = 94.8240
MEAN_ANOMALY   = 258.1874

EPHEMERIS_TYPE = 0
CLASSIFICATION_TYPE = U
NORAD_CAT_ID   = 66087
ELEMENT_SET_NO = 999
REV_AT_EPOCH   = 533
BSTAR          = -.48675E-3
MEAN_MOTION_DOT = -.27423E-3
MEAN_MOTION_DDOT = 0

CCSDS_OMM_VERS = 2.0
CREATION_DATE  = 
ORIGINATOR     = 

OBJECT_NAME    = STARLINK-35461
OBJECT_ID      = 2025-236C
CENTER_NAME    = EARTH
REF_FRAME      = TEME
TIME_SYSTEM    = UTC
MEAN_ELEMENT_THEORY = SGP/SGP4

EPOCH          = 2025-11-14T20:00:01.000224
MEAN_MOTION    = 15.49344626
ECCENTRICITY   = .0001363
INCLINATION    = 53.1595
RA_OF_ASC_NODE = 279.2236
ARG_OF_PERICENTER = 82.0914
MEAN_ANOMALY   = 274.7240

EPHEMERIS_TYPE = 0
CLASSIFICATION_TYPE = U
NORAD_CAT_ID   = 66088
ELEMENT_SET_NO = 999
REV_AT_EPOCH   = 533
BSTAR          = -.1219E-2
MEAN_MOTION_DOT = -.67747E-3
MEAN_MOTION_DDOT = 0

CCSDS_OMM_VERS = 2.0
CREATION_DATE  = 
ORIGINATOR     = 

OBJECT_NAME    = STARLINK-35571
OBJECT_ID      = 2025-236D
CENTER_NAME    = EARTH
REF_FRAME      = TEME
TIME_SYSTEM    = UTC
MEAN_ELEMENT_THEORY = SGP/SGP4

EPOCH          = 2025-11-14T20:00:01.000224
MEAN_MOTION    = 15.49306358
ECCENTRICITY   = .0001686
INCLINATION    = 53.1597
RA_OF_ASC_NODE = 279.2268
ARG_OF_PERICENTER = 101.7758
MEAN_ANOMALY   = 253.1473

EPHEMERIS_TYPE = 0
CLASSIFICATION_TYPE = U
NORAD_CAT_ID   = 66089
ELEMENT_SET_NO = 999
REV_AT_EPOCH   = 539
BSTAR          = -.34696E-3
MEAN_MOTION_DOT = -.19696E-3
MEAN_MOTION_DDOT = 0

CCSDS_OMM_VERS = 2.0
CREATION_DATE  = 
ORIGINATOR     = 

OBJECT_NAME    = STARLINK-35570
OBJECT_ID      = 2025-236E
CENTER_NAME    = EARTH
REF_FRAME      = TEME
TIME_SYSTEM    = UTC
MEAN_ELEMENT_THEORY = SGP/SGP4

EPOCH          = 2025-11-14T20:00:01.000224
MEAN_MOTION    = 15.49331874
ECCENTRICITY   = .0001447
INCLINATION    = 53.1595
RA_OF_ASC_NODE = 279.2200
ARG_OF_PERICENTER = 85.3064
MEAN_ANOMALY   = 273.4196

EPHEMERIS_TYPE = 0
CLASSIFICATION_TYPE = U
NORAD_CAT_ID   = 66090
ELEMENT_SET_NO = 999
REV_AT_EPOCH   = 539
BSTAR          = -.73478E-3
MEAN_MOTION_DOT = -.41133E-3
MEAN_MOTION_DDOT = 0

CCSDS_OMM_VERS = 2.0
CREATION_DATE  = 
ORIGINATOR     = 

OBJECT_NAME    = STARLINK-35532
OBJECT_ID      = 2025-236F
CENTER_NAME    = EARTH
REF_FRAME      = TEME
TIME_SYSTEM    = UTC
MEAN_ELEMENT_THEORY = SGP/SGP4

EPOCH          = 2025-11-14T20:00:01.000224
MEAN_MOTION    = 15.49333115
ECCENTRICITY   = .0001371
INCLINATION    = 53.1595
RA_OF_ASC_NODE = 279.2159
ARG_OF_PERICENTER = 80.7605
MEAN_ANOMALY   = 279.8809

EPHEMERIS_TYPE = 0
CLASSIFICATION_TYPE = U
NORAD_CAT_ID   = 66091
ELEMENT_SET_NO = 999
REV_AT_EPOCH   = 539
BSTAR          = -.75423E-3
MEAN_MOTION_DOT = -.42206E-3
MEAN_MOTION_DDOT = 0

